IRIDIUM 144             
1 43249U 18030A   25190.94624317  .00000052  00000+0  11674-4 0  9996
2 43249  86.3944  73.4877 0002094  84.5796 275.5639 14.34217683381084
IRIDIUM 149             
1 43250U 18030B   25191.23165975  .00000092  00000+0  25639-4 0  9991
2 43250  86.3942  73.3392 0002061  84.5550 275.5881 14.34217846381144
IRIDIUM 157             
1 43251U 18030C   25190.97161389  .00000031  00000+0  39424-5 0  9998
2 43251  86.3945  73.4937 0002303  89.6425 270.5035 14.34217692381088
IRIDIUM 140             
1 43252U 18030D   25190.78133553  .00000053  00000+0  11703-4 0  9993
2 43252  86.3945  73.5868 0002083  81.1487 278.9945 14.34217832381115
IRIDIUM 145             
1 43253U 18030E   25190.90818663  .00000013  00000+0 -23310-5 0  9995
2 43253  86.3943  73.5063 0001650  82.4954 277.6429 14.34217608381061
IRIDIUM 146             
1 43254U 18030F   25190.74962203 -.00000059  00000+0 -28196-4 0  9995
2 43254  86.3942  73.5859 0001668  82.2099 277.9287 14.34217152381059
IRIDIUM 148             
1 43255U 18030G   25191.20629960  .00000187  00000+0  59680-4 0  9990
2 43255  86.3944  73.4331 0002059  89.6380 270.5052 14.34217241381165
IRIDIUM 142             
1 43256U 18030H   25190.96526941  .00000059  00000+0  13969-4 0  9996
2 43256  86.3943  73.4353 0001645  84.6799 275.4584 14.34217954381084
